{
  "norad_id": 63300,
  "name": "KINEIS-4E",
  "history": [
    {
      "epoch": "2026-03-27T19:58:39.530208",
      "apogee_km": 654.7721673992392,
      "perigee_km": 652.8652416512859,
      "latitude_deg": 16.96515063405068,
      "longitude_deg": 133.91058912011795,
      "semi_major_axis_km": 7031.955704525262,
      "eccentricity": 0.00013559,
      "inclination_deg": 97.9728,
      "raan_deg": 212.8182,
      "arg_perigee_deg": 143.5789,
      "mean_anomaly_deg": 216.5511,
      "mean_motion_rev_day": 14.72273762
    }
  ]
}