{"fetched_at":"2026-03-29T02:12:04Z","count":15717,"tles":[{"name":"KINEIS-4E","line1":"1 63300U 25056A   26086.83240197  .00000702  00000+0  11885-3 0  9990","line2":"2 63300  97.9728 212.8182 0001355 143.5789 216.5511 14.72273762 55159","category":"Other"}]}